start=new Date('2022-09-23T00:00:00.000Z').valueOf();
sats=[{"GP_ID":"213257890","EPOCH":"2022-09-22T19:54:32.739840","ECCENTRICITY":"0.00013240","NORAD_CAT_ID":"44733","FILE":"3580594","ARG_OF_PERICENTER":"89.1028","COUNTRY_CODE":"US","PERIAPSIS":"546.328","BSTAR":"-0.00002832100000","TLE_LINE1":"1 44733U 19074W   22265.82954560 -.00000703  00000-0 -28321-4 0  9990","SITE":"AFETR","MEAN_ANOMALY":"271.0113","CENTER_NAME":"EARTH","DECAY_DATE":null,"PERIOD":"95.593","RA_OF_ASC_NODE":"100.2990","MEAN_MOTION_DOT":"-0.00000703","OBJECT_ID":"2019-074W","APOAPSIS":"548.162","REF_FRAME":"TEME","RCS_SIZE":"LARGE","CLASSIFICATION_TYPE":"U","LAUNCH_DATE":"2019-11-11","MEAN_ELEMENT_THEORY":"SGP4","SEMIMAJOR_AXIS":"6925.380","EPHEMERIS_TYPE":"0","TLE_LINE2":"2 44733  53.0540 100.2990 0001324  89.1028 271.0113 15.06389698158250","MEAN_MOTION_DDOT":"0.0000000000000","OBJECT_NAME":"STARLINK-1028","INCLINATION":"53.0540","REV_AT_EPOCH":"15825","ELEMENT_SET_NO":"999","OBJECT_TYPE":"PAYLOAD","MEAN_MOTION":"15.06389698","TIME_SYSTEM":"UTC"},{"BSTAR":"-0.00046495000000","PERIAPSIS":"546.177","COUNTRY_CODE":"US","ARG_OF_PERICENTER":"74.2324","FILE":"3580430","NORAD_CAT_ID":"44734","ECCENTRICITY":"0.00013470","EPOCH":"2022-09-22T13:53:35.323584","GP_ID":"213234032","REF_FRAME":"TEME","APOAPSIS":"548.043","MEAN_MOTION_DOT":"-0.00007206","OBJECT_ID":"2019-074X","RA_OF_ASC_NODE":"21.4411","PERIOD":"95.590","DECAY_DATE":null,"CENTER_NAME":"EARTH","MEAN_ANOMALY":"285.8813","SITE":"AFETR","TLE_LINE1":"1 44734U 19074X   22265.57888106 -.00007206  00000-0 -46495-3 0  9991","EPHEMERIS_TYPE":"0","SEMIMAJOR_AXIS":"6925.245","MEAN_ELEMENT_THEORY":"SGP4","LAUNCH_DATE":"2019-11-11","CLASSIFICATION_TYPE":"U","RCS_SIZE":"LARGE","TIME_SYSTEM":"UTC","MEAN_MOTION":"15.06433775","OBJECT_TYPE":"PAYLOAD","ELEMENT_SET_NO":"999","REV_AT_EPOCH":"15948","INCLINATION":"53.0577","TLE_LINE2":"2 44734  53.0577  21.4411 0001347  74.2324 285.8813 15.06433775159484","OBJECT_NAME":"STARLINK-1029","MEAN_MOTION_DDOT":"0.0000000000000"},{"DECAY_DATE":null,"PERIOD":"95.592","CENTER_NAME":"EARTH","MEAN_ANOMALY":"289.0336","TLE_LINE1":"1 44735U 19074Y   22265.90509482  .00002377  00000-0  17839-3 0  9998","SITE":"AFETR","REF_FRAME":"TEME","APOAPSIS":"548.171","RA_OF_ASC_NODE":"119.9772","OBJECT_ID":"2019-074Y","MEAN_MOTION_DOT":"0.00002377","NORAD_CAT_ID":"44735","ECCENTRICITY":"0.00013770","FILE":"3580594","EPOCH":"2022-09-22T21:43:20.192448","GP_ID":"213256890","BSTAR":"0.00017839000000","ARG_OF_PERICENTER":"71.0802","PERIAPSIS":"546.264","COUNTRY_CODE":"US","REV_AT_EPOCH":"15798","INCLINATION":"53.0544","OBJECT_TYPE":"PAYLOAD","ELEMENT_SET_NO":"999","TLE_LINE2":"2 44735  53.0544 119.9772 0001377  71.0802 289.0336 15.06398594157989","MEAN_MOTION_DDOT":"0.0000000000000","OBJECT_NAME":"STARLINK-1030","TIME_SYSTEM":"UTC","MEAN_MOTION":"15.06398594","LAUNCH_DATE":"2019-11-11","CLASSIFICATION_TYPE":"U","RCS_SIZE":"LARGE","SEMIMAJOR_AXIS":"6925.353","MEAN_ELEMENT_THEORY":"SGP4","EPHEMERIS_TYPE":"0"},{"DECAY_DATE":null,"PERIOD":"95.592","CENTER_NAME":"EARTH","MEAN_ANOMALY":"275.6445","TLE_LINE1":"1 44736U 19074Z   22265.91984055  .00000693  00000-0  65431-4 0  9994","SITE":"AFETR","REF_FRAME":"TEME","APOAPSIS":"548.059","RA_OF_ASC_NODE":"119.9116","OBJECT_ID":"2019-074Z","MEAN_MOTION_DOT":"0.00000693","NORAD_CAT_ID":"44736","ECCENTRICITY":"0.00012090","FILE":"3580594","GP_ID":"213257640","EPOCH":"2022-09-22T22:04:34.223520","BSTAR":"0.00006543100000","ARG_OF_PERICENTER":"84.4682","PERIAPSIS":"546.385","COUNTRY_CODE":"US","REV_AT_EPOCH":"15799","INCLINATION":"53.0547","OBJECT_TYPE":"PAYLOAD","ELEMENT_SET_NO":"999","TLE_LINE2":"2 44736  53.0547 119.9116 0001209  84.4682 275.6445 15.06397293157991","OBJECT_NAME":"STARLINK-1031","MEAN_MOTION_DDOT":"0.0000000000000","TIME_SYSTEM":"UTC","MEAN_MOTION":"15.06397293","LAUNCH_DATE":"2019-11-11","RCS_SIZE":"LARGE","CLASSIFICATION_TYPE":"U","SEMIMAJOR_AXIS":"6925.357","MEAN_ELEMENT_THEORY":"SGP4","EPHEMERIS_TYPE":"0"},{"MEAN_MOTION_DOT":"0.00000664","OBJECT_ID":"2019-074AA","RA_OF_ASC_NODE":"120.1530","APOAPSIS":"548.132","REF_FRAME":"TEME","SITE":"AFETR","TLE_LINE1":"1 44737U 19074AA  22265.86455107  .00000664  00000-0  63492-4 0  9993","CENTER_NAME":"EARTH","MEAN_ANOMALY":"280.8185","DECAY_DATE":null,"PERIOD":"95.592","COUNTRY_CODE":"US","PERIAPSIS":"546.280","ARG_OF_PERICENTER":"79.2954","BSTAR":"0.00006349200000","EPOCH":"2022-09-22T20:44:57.212448","GP_ID":"213234293","FILE":"3580430","ECCENTRICITY":"0.00013370","NORAD_CAT_ID":"44737","MEAN_MOTION":"15.06402410","TIME_SYSTEM":"UTC","TLE_LINE2":"2 44737  53.0540 120.1530 0001337  79.2954 280.8185 15.06402410158151","OBJECT_NAME":"STARLINK-1032","MEAN_MOTION_DDOT":"0.0000000000000","ELEMENT_SET_NO":"999","OBJECT_TYPE":"PAYLOAD","INCLINATION":"53.0540","REV_AT_EPOCH":"15815","EPHEMERIS_TYPE":"0","MEAN_ELEMENT_THEORY":"SGP4","SEMIMAJOR_AXIS":"6925.341","RCS_SIZE":"LARGE","CLASSIFICATION_TYPE":"U","LAUNCH_DATE":"2019-11-11"},{"RCS_SIZE":"LARGE","CLASSIFICATION_TYPE":"U","LAUNCH_DATE":"2019-11-11","MEAN_ELEMENT_THEORY":"SGP4","SEMIMAJOR_AXIS":"6925.349","EPHEMERIS_TYPE":"0","MEAN_MOTION_DDOT":"0.0000000000000","TLE_LINE2":"2 44738  53.0544 119.9311 0001276  75.4368 284.6763 15.06399811157982","OBJECT_NAME":"STARLINK-1033","REV_AT_EPOCH":"15798","INCLINATION":"53.0544","ELEMENT_SET_NO":"999","OBJECT_TYPE":"PAYLOAD","MEAN_MOTION":"15.06399811","TIME_SYSTEM":"UTC","EPOCH":"2022-09-22T21:59:15.412704","GP_ID":"213256148","ECCENTRICITY":"0.00012760","NORAD_CAT_ID":"44738","FILE":"3580594","ARG_OF_PERICENTER":"75.4368","COUNTRY_CODE":"US","PERIAPSIS":"546.330","BSTAR":"0.00015533000000","TLE_LINE1":"1 44738U 19074AB  22265.91615061  .00002033  00000-0  15533-3 0  9991","SITE":"AFETR","MEAN_ANOMALY":"284.6763","CENTER_NAME":"EARTH","DECAY_DATE":null,"PERIOD":"95.592","RA_OF_ASC_NODE":"119.9311","MEAN_MOTION_DOT":"0.00002033","OBJECT_ID":"2019-074AB","APOAPSIS":"548.098","REF_FRAME":"TEME"},{"BSTAR":"0.00056717000000","ARG_OF_PERICENTER":"125.3068","COUNTRY_CODE":"US","PERIAPSIS":"511.597","ECCENTRICITY":"0.00005890","NORAD_CAT_ID":"44739","FILE":"3580594","EPOCH":"2022-09-22T18:38:39.723360","GP_ID":"213256398","APOAPSIS":"512.409","REF_FRAME":"TEME","RA_OF_ASC_NODE":"102.8221","OBJECT_ID":"2019-074AC","MEAN_MOTION_DOT":"0.00011364","MEAN_ANOMALY":"234.7981","CENTER_NAME":"EARTH","DECAY_DATE":null,"PERIOD":"94.864","TLE_LINE1":"1 44739U 19074AC  22265.77684865  .00011364  00000-0  56717-3 0  9990","SITE":"AFETR","MEAN_ELEMENT_THEORY":"SGP4","SEMIMAJOR_AXIS":"6890.138","EPHEMERIS_TYPE":"0","RCS_SIZE":"LARGE","CLASSIFICATION_TYPE":"U","LAUNCH_DATE":"2019-11-11","MEAN_MOTION":"15.17961947","TIME_SYSTEM":"UTC","INCLINATION":"52.9964","REV_AT_EPOCH":"15816","ELEMENT_SET_NO":"999","OBJECT_TYPE":"PAYLOAD","OBJECT_NAME":"STARLINK-1034","TLE_LINE2":"2 44739  52.9964 102.8221 0000589 125.3068 234.7981 15.17961947158162","MEAN_MOTION_DDOT":"0.0000000000000"},{"COUNTRY_CODE":"US","PERIAPSIS":"546.279","ARG_OF_PERICENTER":"84.8075","BSTAR":"0.00099197000000","EPOCH":"2022-09-22T20:39:39.402144","GP_ID":"213234033","FILE":"3580430","ECCENTRICITY":"0.00016080","NORAD_CAT_ID":"44740","MEAN_MOTION_DOT":"0.00014501","OBJECT_ID":"2019-074AD","RA_OF_ASC_NODE":"120.1747","APOAPSIS":"548.506","REF_FRAME":"TEME","SITE":"AFETR","TLE_LINE1":"1 44740U 19074AD  22265.86087271  .00014501  00000-0  99197-3 0  9995","CENTER_NAME":"EARTH","MEAN_ANOMALY":"275.3098","DECAY_DATE":null,"PERIOD":"95.596","EPHEMERIS_TYPE":"0","MEAN_ELEMENT_THEORY":"SGP4","SEMIMAJOR_AXIS":"6925.528","RCS_SIZE":"LARGE","CLASSIFICATION_TYPE":"U","LAUNCH_DATE":"2019-11-11","MEAN_MOTION":"15.06341580","TIME_SYSTEM":"UTC","OBJECT_NAME":"STARLINK-1035","TLE_LINE2":"2 44740  53.0540 120.1747 0001608  84.8075 275.3098 15.06341580158154","MEAN_MOTION_DDOT":"0.0000000000000","ELEMENT_SET_NO":"999","OBJECT_TYPE":"PAYLOAD","REV_AT_EPOCH":"15815","INCLINATION":"53.0540"},{"MEAN_MOTION":"15.06400340","TIME_SYSTEM":"UTC","TLE_LINE2":"2 44741  53.0549 120.1217 0001457  88.2808 271.8348 15.06400340157989","MEAN_MOTION_DDOT":"0.0000000000000","OBJECT_NAME":"STARLINK-1036","ELEMENT_SET_NO":"999","OBJECT_TYPE":"PAYLOAD","INCLINATION":"53.0549","REV_AT_EPOCH":"15798","EPHEMERIS_TYPE":"0","MEAN_ELEMENT_THEORY":"SGP4","SEMIMAJOR_AXIS":"6925.348","RCS_SIZE":"LARGE","CLASSIFICATION_TYPE":"U","LAUNCH_DATE":"2019-11-11","OBJECT_ID":"2019-074AE","MEAN_MOTION_DOT":"0.00001089","RA_OF_ASC_NODE":"120.1217","APOAPSIS":"548.222","REF_FRAME":"TEME","SITE":"AFETR","TLE_LINE1":"1 44741U 19074AE  22265.87192387  .00001089  00000-0  91982-4 0  9994","MEAN_ANOMALY":"271.8348","CENTER_NAME":"EARTH","DECAY_DATE":null,"PERIOD":"95.592","COUNTRY_CODE":"US","PERIAPSIS":"546.203","ARG_OF_PERICENTER":"88.2808","BSTAR":"0.00009198200000","EPOCH":"2022-09-22T20:55:34.222368","GP_ID":"213257891","FILE":"3580594","ECCENTRICITY":"0.00014570","NORAD_CAT_ID":"44741"},{"BSTAR":"0.00125160000000","PERIAPSIS":"506.241","COUNTRY_CODE":"US","ARG_OF_PERICENTER":"72.7872","FILE":"3580594","NORAD_CAT_ID":"44742","ECCENTRICITY":"0.00011700","EPOCH":"2022-09-22T19:32:26.779776","GP_ID":"213256641","REF_FRAME":"TEME","APOAPSIS":"507.852","MEAN_MOTION_DOT":"0.00026761","OBJECT_ID":"2019-074AF","RA_OF_ASC_NODE":"96.2641","DECAY_DATE":null,"PERIOD":"94.762","MEAN_ANOMALY":"287.3250","CENTER_NAME":"EARTH","SITE":"AFETR","TLE_LINE1":"1 44742U 19074AF  22265.81419884  .00026761  00000-0  12516-2 0  9991","EPHEMERIS_TYPE":"0","SEMIMAJOR_AXIS":"6885.182","MEAN_ELEMENT_THEORY":"SGP4","LAUNCH_DATE":"2019-11-11","CLASSIFICATION_TYPE":"U","RCS_SIZE":"LARGE","TIME_SYSTEM":"UTC","MEAN_MOTION":"15.19601277","OBJECT_TYPE":"PAYLOAD","ELEMENT_SET_NO":"999","INCLINATION":"52.9953","REV_AT_EPOCH":"15826","TLE_LINE2":"2 44742  52.9953  96.2641 0001170  72.7872 287.3250 15.19601277158264","OBJECT_NAME":"STARLINK-1037","MEAN_MOTION_DDOT":"0.0000000000000"}];
